#dP2023  1  2  0  0  0.00000000      96 __u+U ITR00 EXT  IAC
## 2243  86400.00000000   900.00000000 59946 0.0000000000000
+  118   C06C07C08C09C10C11C12C13C14C16C19C20C21C22C23C24C25
+        C26C27C28C29C30C32C33C34C36C37C38C39C40C41C42C43C44
+        C45C46E01E02E03E04E05E07E08E09E10E11E12E13E14E15E18
+        E19E21E24E25E26E27E30E31E33E34E36G01G02G03G04G05G06
+        G07G08G09G10G11G12G13G14G15G16G17G18G19G20G21G22G23
+        G24G25G26G27G29G30G31G32J02J03J04R01R02R03R04R05R07
+        R08R09R11R12R13R14R15R16R17R18R19R20R21R22R24R25  0
++        11  9 10 11  9 11 10 10  9 10  7  6  9  8  8  9  8
++         8  8 10  9  7  8  8  9  9 10  9 10 10  9  7 10  8
++         6  8  8  7  8  9  8  7  7  9  7  7  7  8  6  7  7
++         7  7  7  8  7  8  7  6  7  7  7  7  7  7  8  7  7
++         7  8  8  8  7  6  7  8  7  7  6  7  7  7  8  8  8
++         7  7  8  8  7  7  7  8  9 10 10  8  8  6  8  8  7
++         8  7  9  8 10  7  8 10  5  7  9 11  8  8  6  8  0
%c M  cc GPS ccc cccc cccc cccc cccc ccccc ccccc ccccc ccccc
%c cc cc ccc ccc cccc cccc cccc cccc ccccc ccccc ccccc ccccc
%f  0.0000000  0.000000000  0.00000000000  0.000000000000000
%f  0.0000000  0.000000000  0.00000000000  0.000000000000000
%i    0    0    0    0      0      0      0      0         0
%i    0    0    0    0      0      0      0      0         0
/* IAC                                ULTRA-RAPID PREDICTION
/* S/V CLOCKS ARE ALIGNED TO GNSS TIME                      
/* G:C1WC2W R:C1PC2P E:C1XC5X C:C2IC6I J:C1CC2S             
/* PCV:IGS20_2239 OL/AL:FES2004  NONE     YN ORB:CoN CLK:CoN
*  2023 01 02 11 15  0.00000000
PC06  -5169.470957  39638.985535 -12956.746449    209.011038
PC07  -5443.878265  26703.486410  32223.072405     73.921060
PC08 -19168.057564  30698.892471 -21783.551432    526.396777
PC09   -715.418603  41562.473569  -4651.893894     96.373547
PC10   1096.650887  28106.723008  31783.673579     40.072874
PC11 -13843.763790   7543.378110  23102.158712   -200.964092
PC12 -16141.028623 -12680.143975  18946.941675    376.626631
PC13 -13257.356427  31132.336559 -25171.087335    173.392209
PC14 -23486.493697   4160.928749 -14428.959992    326.486662
PC16  -6781.835134  38246.588984 -15881.033555     90.112480
PC19  16005.536112 -10270.484146  20449.946493   -899.264323
PC20  26779.503102   1474.946000   7761.558407    783.179272
PC21 -22135.553829 -13266.806348  10613.090931   -920.168830
PC22  -4498.171134 -16655.931595  21927.216871   -707.206776
PC23  -5934.275691  22195.286768  15842.952376   -870.843838
PC24 -21836.801559   4915.898653 -16704.239365   -594.029882
PC25 -18934.544174  20512.700242    445.020334     49.072216
PC26 -12367.589374 -10627.933437 -22664.268120    -58.573789
PC27  14349.881674  20367.078585 -12571.502606     75.470485
PC28   4402.313696  27292.552839   3822.118263     54.261846
PC29   8483.744219 -18298.002138 -19289.069022     61.975396
PC30  16774.929414   1984.827641 -22211.096692      1.259480
PC32  22204.636708  13117.493013 -10652.330311   -662.729437
PC33 -16032.735935  10326.001066 -20367.524154   -885.410003
PC34 -16584.029825   -656.592142  22430.143135     74.675547
PC36  19715.612253 -19739.225477    196.010220   -723.471937
PC37  10919.988181  12110.148884  22651.948929   -860.438380
PC38 -23411.559251  31914.476223 -14771.486027     49.194677
PC39  -8194.582898  35560.680925 -20888.552002     -1.275240
PC40 -10436.583461  20496.608182  35335.734530    -11.577974
PC41   3902.176056  16600.231810 -22038.890478   -448.110592
PC42 -27017.000283  -2318.587951  -6517.489456   -920.640557
PC43  -9123.180965  17601.755227  19624.911404     33.248559
PC44 -15075.449255 -20013.151855  12313.753014    164.465254
PC45   5607.525056 -22014.922060 -16194.473258    -42.436426
PC46  22199.299863  -6633.632985  15514.232698    -23.695036
PE01  10563.518830  14099.650198  23782.208306   -588.695400
PE02 -10968.508215 -13943.029109 -23704.843617     12.263865
PE03 -17326.140997 -23320.827855   5644.934944   -635.904197
PE04  24031.349063  12082.387611  12352.440869    -27.379608
PE05   -258.337320 -21104.361949  20753.137575   -109.123611
PE07 -16737.663461   6560.040104 -23514.551374    -12.007394
PE08 -24009.591312 -12142.233678 -12338.341258    -12.807608
PE09  16770.584528  -6301.488361  23561.513054   -785.687961
PE10  17244.959853  -6743.450173 -23091.181844   -502.177154
PE11  16386.236599 -17806.448417 -17056.934747    280.763847
PE12  15496.746594   4371.419210 -24832.195175   -368.267189
PE13 -16504.909659  16987.964021  17760.086250    430.137231
PE14  -7693.596518  15323.417524  18440.142741    101.947972
PE15 -15330.200546  -4714.296137  24890.590959    696.866423
PE18  17398.280967 -10083.183166 -23951.366352   -556.658918
PE19  15416.843350  23911.462865  -8152.940129  -3588.859281
PE21  -9934.400295  17716.487799  21531.873688   -503.895304
PE24  26809.465382 -10971.581624  -6025.665603  -1035.603157
PE25  10253.266399 -17697.459713 -21390.220100   -596.307474
PE26  -7539.550922  28620.708137   -531.643677  -1863.374985
PE27 -26393.934613  11541.205805   6847.680926   -477.918514
PE30 -26860.136001  -1999.582102 -12314.373867  -1127.533375
PE31  27137.717127   1376.613714  11730.560236   -512.255262
PE33   5106.796793  23481.266597 -17268.607463   -454.932780
PE34  -5272.477613 -23354.227435  17402.056940    -22.755593
PE36   7986.901777 -28504.694714   -283.359313   -484.428234
PG01 -13832.880745  20544.602877   8786.506536    229.590478
PG02  10562.490446 -23586.733470  -5960.430284   -629.675389
PG03 -19541.485352  12489.239507 -12969.471484   -374.135396
PG04  -8720.866442  13025.189310 -21424.739989    -56.777763
PG05  26084.053373  -5263.413699  -1047.712989   -110.428095
PG06   8505.584176  15147.519429 -19993.429131    551.660648
PG07  -5175.423344  25341.309445   5163.961296    265.260358
PG08 -17046.600943   2235.339847  20295.194656   -101.618626
PG09   2322.184362  20480.672859 -16803.994075   -243.372707
PG10 -11205.248176 -12292.769984  20946.228345    -18.696497
PG11  15309.284519   2163.228074 -21582.081379    -69.664086
PG12  21073.465008 -10819.883313 -12180.967892   -323.241247
PG13  18625.926124   6620.119710  17654.042410    452.478422
PG14   8215.160345  13983.502211  21058.508585    -57.239721
PG15  16784.590617  -4622.930546  19680.137314      1.139286
PG16 -26503.737973   -512.041014  -4327.558939   -524.927943
PG17  11813.140126  22966.360086   6430.296662    690.499816
PG18   3963.433074 -25082.484977   7535.205645    -82.958215
PG19  17745.764331  19207.562476  -5624.345307    258.698629
PG20  23242.263808   1234.705119 -12565.586231    459.641638
PG21 -15736.535624  13215.825698  16970.684346    153.132320
PG22 -18796.621359 -17121.961468  -7557.673067    397.425717
PG23   1638.733320 -15394.413452  21562.841372      1.383069
PG24  14342.383628 -17965.633672  12584.942888    -11.974491
PG25  11811.152375 -15467.176216 -18251.312138    407.668236
PG26 -21095.906350  -6274.505230 -15206.483014    239.620000
PG27 -20620.014667  -9218.463306  14072.210049    137.293656
PG29   1364.482973 -19123.695342 -18389.295941   -577.970754
PG30   3978.852734  21423.344247  15100.545148   -534.208301
PG31 -10376.245782 -13476.818202 -20450.360025   -205.119938
PG32 -15393.953121 -21516.807250   3528.395030   -350.578284
PJ02 -31426.167475  25139.609739  17521.476525     -0.462218
PJ03 -26112.185147  27859.995856  22856.827257     -8.064801
PJ04 -29290.342091  20530.628047 -17080.472841    117.178426
PR01 -23747.773815  -8688.458532  -3326.916165     20.569039
PR02 -16599.896378   2053.350792 -19244.970635    -23.346283
PR03   -143.790961  11728.981602 -22601.103265     70.182470
PR04  16045.228494  14573.616867 -13407.154110    170.853682
PR05  23401.058358   9615.964310   3140.176315    105.547193
PR07   -747.929131 -12093.353048  22490.720812     47.259377
PR08 -16192.001835 -14587.168863  13339.774379    -68.842216
PR09  21063.223349 -14342.092269   1838.599819     96.345210
PR11  -3290.599824 -10949.543729 -22796.697906     10.049933
PR12 -18274.080101   2590.112850 -17598.550547     24.045516
PR13 -21428.343640  13384.920056  -3558.853743    -30.550633
PR14 -11781.482208  17179.875773  14718.318442     24.159554
PR15   4285.267312  10434.769914  22891.642770     91.964364
PR16  18000.961265  -2563.233147  17906.583791      9.445377
PR17  -1678.183619  24218.741596   7906.939318    592.218091
PR18   5628.471038  23216.206267  -8850.073859     59.808608
PR19   9600.415775  11829.411893 -20452.391438   -216.775321
PR20   9043.457524 -10648.668258 -21337.605159    -85.090600
PR21   1022.636130 -24689.095232  -6273.988081   -362.274060
PR22  -5298.409105 -23051.260807   9603.156956     64.910974
PR24  -8997.233121  11563.414757  20907.811129    136.854562
PR25   3114.828029 -23944.032790  -8187.179751     50.507602
EOF
